NORAD_CAT_ID,OBJECT_NAME,OBJECT_TYPE,EPOCH,MEAN_MOTION,ECCENTRICITY,INCLINATION,RA_OF_ASC_NODE,ARG_OF_PERICENTER,MEAN_ANOMALY,BSTAR,MEAN_MOTION_DOT,MEAN_MOTION_DDOT,TLE_LINE0,TLE_LINE1,TLE_LINE2,SEMIMAJOR_AXIS,PERIOD,APOGEE,PERIGEE,DECAYED
53274.0,STARLINK-4050,PAYLOAD,2023-04-10 05:29:38,15.08835404,1.3e-05,53.2176,282.6706,231.1631,128.9349,4.7829e-05,4.74e-06,0.0,0 STARLINK-4050,1 53274U 22086AJ  23100.22891703  .00000474  00000-0  47829-4 0  9996,2 53274  53.2176 282.6706 0000130 231.1631 128.9349 15.08835404 40322,6917.894,95.438,539.849,539.67,0.0
53274.0,STARLINK-4050,PAYLOAD,2023-04-10 11:51:11,15.08834756,7.41e-05,53.217,281.4803,84.4097,275.698,5.3785e-05,5.68e-06,0.0,0 STARLINK-4050,1 53274U 22086AJ  23100.49388185  .00000568  00000-0  53785-4 0  9992,2 53274  53.2170 281.4803 0000741  84.4097 275.6980 15.08834756 40548,6917.896,95.438,540.274,539.249,0.0
53274.0,STARLINK-4050,PAYLOAD,2023-04-10 15:01:57,15.08839927,8.52e-05,53.2166,280.8854,85.0427,275.0663,0.00013653,1.886e-05,0.0,0 STARLINK-4050,1 53274U 22086AJ  23100.62635998  .00001886  00000-0  13653-3 0  9997,2 53274  53.2166 280.8854 0000852  85.0427 275.0663 15.08839927 40568,6917.881,95.438,540.335,539.156,0.0
53274.0,STARLINK-4050,PAYLOAD,2023-04-11 05:20:25,15.08851215,9.95e-05,53.2161,278.2096,74.0322,286.0779,0.000205,2.977e-05,0.0,0 STARLINK-4050,1 53274U 22086AJ  23101.22251429  .00002977  00000-0  20500-3 0  9998,2 53274  53.2161 278.2096 0000995  74.0322 286.0779 15.08851215 40476,6917.846,95.437,540.399,539.023,0.0
53274.0,STARLINK-4050,PAYLOAD,2023-04-11 11:41:58,15.08840706,0.0001685,53.2162,277.0233,70.1685,289.9488,4.6157e-05,4.47e-06,0.0,0 STARLINK-4050,1 53274U 22086AJ  23101.48748108  .00000447  00000-0  46157-4 0  9998,2 53274  53.2162 277.0233 0001685  70.1685 289.9488 15.08840706 40510,6917.878,95.438,540.909,538.578,0.0
53274.0,STARLINK-4050,PAYLOAD,2023-04-11 18:03:30,15.08842241,0.0001342,53.2156,275.8306,86.2749,273.8397,0.00016358,2.317e-05,0.0,0 STARLINK-4050,1 53274U 22086AJ  23101.75244013  .00002317  00000-0  16358-3 0  9991,2 53274  53.2156 275.8306 0001342  86.2749 273.8397 15.08842241 40730,6917.874,95.437,540.667,538.81,0.0
53274.0,STARLINK-4050,PAYLOAD,2023-04-13 09:48:08,15.08845271,0.0001698,53.2136,268.3978,86.3344,273.7842,0.00015287,2.146e-05,0.0,0 STARLINK-4050,1 53274U 22086AJ  23103.40843692  .00002146  00000-0  15287-3 0  9993,2 53274  53.2136 268.3978 0001698  86.3344 273.7842 15.08845271 40983,6917.864,95.437,540.904,538.555,0.0
53274.0,STARLINK-4050,PAYLOAD,2023-04-14 03:17:23,15.08845973,9.99e-05,53.2161,265.1247,89.8594,270.2512,0.00015227,2.137e-05,0.0,0 STARLINK-4050,1 53274U 22086AJ  23104.13707693  .00002137  00000-0  15227-3 0  9998,2 53274  53.2161 265.1247 0000999  89.8594 270.2512 15.08845973 40911,6917.862,95.437,540.418,539.036,0.0
53274.0,STARLINK-4050,PAYLOAD,2023-04-14 12:49:42,15.0884323,0.00011,53.2151,263.3416,95.1448,264.9669,-3.6188e-05,-8.64e-06,0.0,0 STARLINK-4050,1 53274U 22086AJ  23104.53451760 -.00000864  00000-0 -36188-4 0  9990,2 53274  53.2151 263.3416 0001100  95.1448 264.9669 15.08843230 41155,6917.871,95.437,540.496,538.975,0.0
53274.0,STARLINK-4050,PAYLOAD,2023-04-15 11:05:06,15.08835256,8.26e-05,53.2192,259.1788,80.2708,279.8378,7.1328e-05,8.48e-06,0.0,0 STARLINK-4050,1 53274U 22086AJ  23105.46188041  .00000848  00000-0  71328-4 0  9997,2 53274  53.2192 259.1788 0000826  80.2708 279.8378 15.08835256 41110,6917.895,95.438,540.331,539.188,0.0
53274.0,STARLINK-4050,PAYLOAD,2023-04-15 19:02:01,15.08848918,7.23e-05,53.2166,257.6905,61.1533,298.9531,0.00015547,2.188e-05,0.0,0 STARLINK-4050,1 53274U 22086AJ  23105.79307302  .00002188  00000-0  15547-3 0  9995,2 53274  53.2166 257.6905 0000723  61.1533 298.9531 15.08848918 41162,6917.853,95.437,540.218,539.218,0.0
53274.0,STARLINK-4050,PAYLOAD,2023-04-16 02:58:57,15.08837225,0.000109,53.2155,256.2039,76.0007,284.1106,1.1097e-05,-1.11e-06,0.0,0 STARLINK-4050,1 53274U 22086AJ  23106.12427971 -.00000111  00000-0  11097-4 0  9990,2 53274  53.2155 256.2039 0001090  76.0007 284.1106 15.08837225 41212,6917.889,95.438,540.508,539.0,0.0
53274.0,STARLINK-4050,PAYLOAD,2023-04-16 14:06:39,15.08839612,9.87e-05,53.2158,254.1228,75.438,284.6721,9.5217e-05,1.228e-05,0.0,0 STARLINK-4050,1 53274U 22086AJ  23106.58795969  .00001228  00000-0  95217-4 0  9990,2 53274  53.2158 254.1228 0000987  75.4380 284.6721 15.08839612 41460,6917.882,95.438,540.429,539.064,0.0
53274.0,STARLINK-4050,PAYLOAD,2023-04-16 18:52:48,15.08850829,7.54e-05,53.2162,253.229,69.1512,290.9561,0.00024647,3.638e-05,0.0,0 STARLINK-4050,1 53274U 22086AJ  23106.78667312  .00003638  00000-0  24647-3 0  9997,2 53274  53.2162 253.2290 0000754  69.1512 290.9561 15.08850829 41312,6917.847,95.437,540.234,539.191,0.0
53274.0,STARLINK-4050,PAYLOAD,2023-04-17 13:57:26,15.08834453,9.21e-05,53.2174,249.6636,137.6173,222.489,4.6618e-05,4.54e-06,0.0,0 STARLINK-4050,1 53274U 22086AJ  23107.58156204  .00000454  00000-0  46618-4 0  9995,2 53274  53.2174 249.6636 0000921 137.6173 222.4890 15.08834453 41611,6917.897,95.438,540.399,539.125,0.0
53274.0,STARLINK-4050,PAYLOAD,2023-04-17 17:08:13,15.08840903,0.0001356,53.2162,249.0669,57.1013,303.0109,0.00017345,2.474e-05,0.0,0 STARLINK-4050,1 53274U 22086AJ  23107.71404399  .00002474  00000-0  17345-3 0  9999,2 53274  53.2162 249.0669 0001356  57.1013 303.0109 15.08840903 41458,6917.878,95.437,540.681,538.805,0.0
53274.0,STARLINK-4050,PAYLOAD,2023-04-17 21:54:22,15.08852841,0.0001071,53.2155,248.1741,64.3337,295.7765,0.00054181,8.349e-05,0.0,0 STARLINK-4050,1 53274U 22086AJ  23107.91275967  .00008349  00000-0  54181-3 0  9994,2 53274  53.2155 248.1741 0001071  64.3337 295.7765 15.08852841 41486,6917.841,95.437,540.447,538.965,0.0
53274.0,STARLINK-4050,PAYLOAD,2023-04-18 13:48:14,15.08831923,0.0001354,53.2163,245.2022,40.28,319.8293,0.00025633,3.793e-05,0.0,0 STARLINK-4050,1 53274U 22086AJ  23108.57516828  .00003793  00000-0  25633-3 0  9999,2 53274  53.2163 245.2022 0001354  40.2800 319.8293 15.08831923 41580,6917.905,95.438,540.707,538.833,0.0
53274.0,STARLINK-4050,PAYLOAD,2023-04-18 15:23:37,15.08837265,0.0001128,53.2158,244.9014,69.8521,290.2592,0.00045219,6.916e-05,0.0,0 STARLINK-4050,1 53274U 22086AJ  23108.64140613  .00006916  00000-0  45219-3 0  9994,2 53274  53.2158 244.9014 0001128  69.8521 290.2592 15.08837265 41777,6917.889,95.438,540.534,538.973,0.0
53274.0,STARLINK-4050,PAYLOAD,2023-04-19 08:52:51,15.08844863,8.61e-05,53.2165,241.6294,119.1719,240.9359,0.00058096,8.971e-05,0.0,0 STARLINK-4050,1 53274U 22086AJ  23109.37004116  .00008971  00000-0  58096-3 0  9992,2 53274  53.2165 241.6294 0000861 119.1719 240.9359 15.08844863 41887,6917.866,95.437,540.326,539.135,0.0
53274.0,STARLINK-4050,PAYLOAD,2023-04-19 20:00:32,15.08887309,0.0001139,53.2159,239.549,101.1966,258.9154,0.0021527,0.00034183,0.0,0 STARLINK-4050,1 53274U 22086AJ  23109.83371198  .00034183  00000-0  21527-2 0  9992,2 53274  53.2159 239.5490 0001139 101.1966 258.9154 15.08887309 41950,6917.736,95.435,540.389,538.813,0.0
53274.0,STARLINK-4050,PAYLOAD,2023-04-20 19:51:20,15.08841102,0.0001654,53.2179,235.0868,105.6444,254.4731,0.00063527,9.837e-05,0.0,0 STARLINK-4050,1 53274U 22086AJ  23110.82732035  .00009837  00000-0  63527-3 0  9999,2 53274  53.2179 235.0868 0001654 105.6444 254.4731 15.08841102 42105,6917.877,95.437,540.886,538.598,0.0
53274.0,STARLINK-4050,PAYLOAD,2023-04-21 19:42:07,15.0885204,0.0001815,53.2169,230.6254,108.9571,251.1617,0.0016477,0.00026041,0.0,0 STARLINK-4050,1 53274U 22086AJ  23111.82092574  .00026041  00000-0  16477-2 0  9994,2 53274  53.2169 230.6254 0001815 108.9571 251.1617 15.08852040 42076,6917.844,95.437,540.964,538.453,0.0
53274.0,STARLINK-4050,PAYLOAD,2023-04-22 00:28:17,15.08833829,0.0001195,53.2174,229.7381,157.2796,202.8249,0.0002283,3.347e-05,0.0,0 STARLINK-4050,1 53274U 22086AJ  23112.01964572  .00003347  00000-0  22830-3 0  9997,2 53274  53.2174 229.7381 0001195 157.2796 202.8249 15.08833829 42101,6917.899,95.438,540.591,538.938,0.0
53274.0,STARLINK-4050,PAYLOAD,2023-04-22 17:57:31,15.08861253,0.0001495,53.2162,226.4646,92.2049,267.9115,0.0010307,0.00016163,0.0,0 STARLINK-4050,1 53274U 22086AJ  23112.74828218  .00016163  00000-0  10307-2 0  9998,2 53274  53.2162 226.4646 0001495  92.2049 267.9115 15.08861253 42216,6917.815,95.436,540.715,538.646,0.0
53274.0,STARLINK-4050,PAYLOAD,2023-04-23 06:40:37,15.08841917,0.000159,53.2157,224.0907,92.1086,268.0088,0.00038033,5.77e-05,0.0,0 STARLINK-4050,1 53274U 22086AJ  23113.27820729  .00005770  00000-0  38033-3 0  9995,2 53274  53.2157 224.0907 0001590  92.1086 268.0088 15.08841917 42294,6917.875,95.437,540.839,538.64,0.0
53274.0,STARLINK-4050,PAYLOAD,2023-04-23 16:12:56,15.08831674,0.0001102,53.2152,222.3063,85.3886,274.7232,0.0012197,0.00019172,0.0,0 STARLINK-4050,1 53274U 22086AJ  23113.67565258  .00019172  00000-0  12197-2 0  9995,2 53274  53.2152 222.3063 0001102  85.3886 274.7232 15.08831674 42355,6917.906,95.438,540.533,539.008,0.0
53274.0,STARLINK-4050,PAYLOAD,2023-04-23 19:23:42,15.08854341,0.0001009,53.2151,221.7103,81.9446,278.1661,0.0025171,0.00040015,0.0,0 STARLINK-4050,1 53274U 22086AJ  23113.80813101  .00040015  00000-0  25171-2 0  9999,2 53274  53.2151 221.7103 0001009  81.9446 278.1661 15.08854341 42554,6917.837,95.437,540.4,539.004,0.0
53274.0,STARLINK-4050,PAYLOAD,2023-04-25 00:00:36,15.08771181,6.76e-05,53.2149,216.3599,181.7342,178.3648,0.0011268,0.00017657,0.0,0 STARLINK-4050,1 53274U 22086AJ  23115.00041981  .00017657  00000-0  11268-2 0  9990,2 53274  53.2149 216.3599 0000676 181.7342 178.3648 15.08771181 42559,6918.091,95.442,540.423,539.488,0.0
53274.0,STARLINK-4050,PAYLOAD,2023-04-25 11:08:19,15.0878246,6.35e-05,53.2154,214.2779,151.8759,208.2268,0.00076036,0.00011815,0.0,0 STARLINK-4050,1 53274U 22086AJ  23115.46411965  .00011815  00000-0  76036-3 0  9998,2 53274  53.2154 214.2779 0000635 151.8759 208.2268 15.08782460 42808,6918.056,95.441,540.361,539.482,0.0
